CALSPHERE 1             
1 00900U 64063C   24153.56612028  .00000852  00000+0  88010-3 0  9997
2 00900  90.2053  55.0464 0028050  31.4181  42.5143 13.75047744968887
CALSPHERE 2             
1 00902U 64063E   24153.22269455  .00000040  00000+0  47521-4 0  9996
2 00902  90.2214  58.6369 0016812 229.2177 296.7787 13.52799605755400
LCS 1                   
1 01361U 65034C   24153.34828414  .00000020  00000+0  15793-2 0  9996
2 01361  32.1362 147.9005 0006045 337.0918  22.9309  9.89305761136027
TEMPSAT 1               
1 01512U 65065E   24153.17692823  .00000039  00000+0  59943-4 0  9999
2 01512  89.9553 214.1453 0069722 181.8731 233.4071 13.33515891860626
CALSPHERE 4A            
1 01520U 65065H   24153.47022509  .00000157  00000+0  28443-3 0  9990
2 01520  89.9452 128.1327 0071017  48.7714  74.7164 13.36067765863121
OPS 5712 (P/L 160)      
1 02826U 67053A   24153.57920709  .00006430  00000+0  13723-2 0  9993
2 02826  69.9262  42.0573 0001862  89.6200 270.5151 14.59282998956689
OPS 5712 (P/L 153)      
1 02874U 67053H   24153.62002020  .00000079  00000+0  95467-4 0  9999
2 02874  69.9744 273.1090 0004822  81.9253 278.2400 13.96590923902672
SURCAL 150B             
1 02909U 67053J   24153.58360064  .00014711  00000+0  19131-2 0  9998
2 02909  69.9415 348.7155 0003912 170.9198 189.2023 14.80754221968720
RIGIDSPHERE 2 (LCS 4)   
1 05398U 71067E   24153.56861150  .00000901  00000+0  29910-3 0  9996
2 05398  87.6282 185.5041 0061507 181.5774 178.5240 14.35759263766805
COSMOS 2493 (SKRL-756 1)
1 39490U 13078A   24153.54158290  .00003932  00000+0  36409-3 0  9994
2 39490  82.4158 266.6907 0014577 232.4985 127.4911 14.94206816566270
COSMOS 2494 (SKRL-756 2)
1 39491U 13078B   24153.55174843  .00004368  00000+0  38537-3 0  9996
2 39491  82.4158 258.7208 0019177 202.1823 157.8571 14.96060955566951
